{"type": "FeatureCollection", "features": [ {"type": "Feature", "properties": {"norad_id": 32184, "name": "FENGYUN 1C DEB", "group": "fengyun-1c-debris", "lat": 24.932705263410302, "lon": 113.61905494954723, "alt_km": 390.1325582234231, "timestamp": "2025-12-04T23:34:06.008566+00:00", "meta": {"OBJECT_NAME": "FENGYUN 1C DEB", "OBJECT_ID": "1999-025CUE", "EPOCH": "2025-11-29T15:43:46.172928", "MEAN_MOTION": 15.41247728, "ECCENTRICITY": 0.00737208, "INCLINATION": 98.1191, "RA_OF_ASC_NODE": 111.5023, "ARG_OF_PERICENTER": 34.712, "MEAN_ANOMALY": 325.8902, "EPHEMERIS_TYPE": 0, "CLASSIFICATION_TYPE": "U", "NORAD_CAT_ID": 32184, "ELEMENT_SET_NO": 999, "REV_AT_EPOCH": 98202, "BSTAR": 0.0018533746, "MEAN_MOTION_DOT": 0.00085629, "MEAN_MOTION_DDOT": 0}, "tle": {"line1": "1 32184U 99025CUE 25333.65539552  .00085629  00000+0  18534-2 0  9991", "line2": "2 32184  98.1191 111.5023 0073720  34.7120 325.8902 15.41247728982029"}}, "geometry": {"type": "Point", "coordinates": [113.61905494954723, 24.932705263410302]}}, {"type": "Feature", "properties": {"norad_id": 32185, "name": "FENGYUN 1C DEB", "group": "fengyun-1c-debris", "lat": -71.58345237864245, "lon": -147.83175676721544, "alt_km": 611.55514753852, "timestamp": "2025-12-04T23:34:06.008576+00:00", "meta": {"OBJECT_NAME": "FENGYUN 1C DEB", "OBJECT_ID": "1999-025CUF", "EPOCH": "2025-12-04T07:54:35.710272", "MEAN_MOTION": 15.02297817, "ECCENTRICITY": 0.0164942, "INCLINATION": 98.9026, "RA_OF_ASC_NODE": 183.3363, "ARG_OF_PERICENTER": 42.3617, "MEAN_ANOMALY": 319.0203, "EPHEMERIS_TYPE": 0, "CLASSIFICATION_TYPE": "U", "NORAD_CAT_ID": 32185, "ELEMENT_SET_NO": 999, "REV_AT_EPOCH": 94889, "BSTAR": 0.0060111, "MEAN_MOTION_DOT": 0.00107989, "MEAN_MOTION_DDOT": 0}, "tle": {"line1": "1 32185U 99025CUF 25338.32957998  .00107989  00000+0  60111-2 0  9991", "line2": "2 32185  98.9026 183.3363 0164942  42.3617 319.0203 15.02297817948899"}}, "geometry": {"type": "Point", "coordinates": [-147.83175676721544, -71.58345237864245]}}, {"type": "Feature", "properties": {"norad_id": 32186, "name": "FENGYUN 1C DEB", "group": "fengyun-1c-debris", "lat": 40.856791870850785, "lon": -142.19103632287622, "alt_km": 941.0108054911925, "timestamp": "2025-12-04T23:34:06.008587+00:00", "meta": {"OBJECT_NAME": "FENGYUN 1C DEB", "OBJECT_ID": "1999-025CUG", "EPOCH": "2025-11-27T22:32:39.210144", "MEAN_MOTION": 13.76456233, "ECCENTRICITY": 0.0273811, "INCLINATION": 99.6093, "RA_OF_ASC_NODE": 22.268, "ARG_OF_PERICENTER": 239.107, "MEAN_ANOMALY": 302.2685, "EPHEMERIS_TYPE": 0, "CLASSIFICATION_TYPE": "U", "NORAD_CAT_ID": 32186, "ELEMENT_SET_NO": 999, "REV_AT_EPOCH": 62406, "BSTAR": 0.0013119, "MEAN_MOTION_DOT": 1.643e-05, "MEAN_MOTION_DDOT": 0}, "tle": {"line1": "1 32186U 99025CUG 25331.93934271  .00001643  00000+0  13119-2 0  9997", "line2": "2 32186  99.6093  22.2680 0273811 239.1070 302.2685 13.76456233624066"}}, "geometry": {"type": "Point", "coordinates": [-142.19103632287622, 40.856791870850785]}}, {"type": "Feature", "properties": {"norad_id": 32187, "name": "FENGYUN 1C DEB", "group": "fengyun-1c-debris", "lat": -44.706488296059035, "lon": 67.82143464754277, "alt_km": 1263.308886589486, "timestamp": "2025-12-04T23:34:06.008598+00:00", "meta": {"OBJECT_NAME": "FENGYUN 1C DEB", "OBJECT_ID": "1999-025CUH", "EPOCH": "2025-11-14T01:13:51.155328", "MEAN_MOTION": 13.50459969, "ECCENTRICITY": 0.02935721, "INCLINATION": 99.509, "RA_OF_ASC_NODE": 38.2489, "ARG_OF_PERICENTER": 217.6555, "MEAN_ANOMALY": 268.1397, "EPHEMERIS_TYPE": 0, "CLASSIFICATION_TYPE": "U", "NORAD_CAT_ID": 32187, "ELEMENT_SET_NO": 999, "REV_AT_EPOCH": 65871, "BSTAR": 0.0010895496, "MEAN_MOTION_DOT": 8.7e-06, "MEAN_MOTION_DDOT": 0}, "tle": {"line1": "1 32187U 99025CUH 25318.05128652  .00000870  00000+0  10895-2 0  9993", "line2": "2 32187  99.5090  38.2489 0293572 217.6555 268.1397 13.50459969658712"}}, "geometry": {"type": "Point", "coordinates": [67.82143464754277, -44.706488296059035]}}, {"type": "Feature", "properties": {"norad_id": 32191, "name": "FENGYUN 1C DEB", "group": "fengyun-1c-debris", "lat": 39.42699331440893, "lon": -137.6156105485825, "alt_km": 780.2827120404227, "timestamp": "2025-12-04T23:34:06.008608+00:00", "meta": {"OBJECT_NAME": "FENGYUN 1C DEB", "OBJECT_ID": "1999-025CUM", "EPOCH": "2025-12-04T09:25:35.043744", "MEAN_MOTION": 14.25105987, "ECCENTRICITY": 0.0093524, "INCLINATION": 98.7083, "RA_OF_ASC_NODE": 34.5602, "ARG_OF_PERICENTER": 210.5327, "MEAN_ANOMALY": 149.0388, "EPHEMERIS_TYPE": 0, "CLASSIFICATION_TYPE": "U", "NORAD_CAT_ID": 32191, "ELEMENT_SET_NO": 999, "REV_AT_EPOCH": 64382, "BSTAR": 0.0033401, "MEAN_MOTION_DOT": 8.164e-05, "MEAN_MOTION_DDOT": 0}, "tle": {"line1": "1 32191U 99025CUM 25338.39276671  .00008164  00000+0  33401-2 0  9994", "line2": "2 32191  98.7083  34.5602 0093524 210.5327 149.0388 14.25105987643824"}}, "geometry": {"type": "Point", "coordinates": [-137.6156105485825, 39.42699331440893]}}, {"type": "Feature", "properties": {"norad_id": 32192, "name": "FENGYUN 1C DEB", "group": "fengyun-1c-debris", "lat": 26.96940056452646, "lon": -153.96202017515964, "alt_km": 1075.0547080620345, "timestamp": "2025-12-04T23:34:06.008618+00:00", "meta": {"OBJECT_NAME": "FENGYUN 1C DEB", "OBJECT_ID": "1999-025CUN", "EPOCH": "2025-12-04T09:32:10.557888", "MEAN_MOTION": 13.82503909, "ECCENTRICITY": 0.0181329, "INCLINATION": 98.6531, "RA_OF_ASC_NODE": 209.9447, "ARG_OF_PERICENTER": 185.0799, "MEAN_ANOMALY": 174.8522, "EPHEMERIS_TYPE": 0, "CLASSIFICATION_TYPE": "U", "NORAD_CAT_ID": 32192, "ELEMENT_SET_NO": 999, "REV_AT_EPOCH": 92597, "BSTAR": 0.00048978, "MEAN_MOTION_DOT": 5.63e-06, "MEAN_MOTION_DDOT": 0}, "tle": {"line1": "1 32192U 99025CUN 25338.39734442  .00000563  00000+0  48978-3 0  9991", "line2": "2 32192  98.6531 209.9447 0181329 185.0799 174.8522 13.82503909925970"}}, "geometry": {"type": "Point", "coordinates": [-153.96202017515964, 26.96940056452646]}}, {"type": "Feature", "properties": {"norad_id": 32195, "name": "FENGYUN 1C DEB", "group": "fengyun-1c-debris", "lat": -71.38264293751256, "lon": 8.890177458320787, "alt_km": 831.4106143710023, "timestamp": "2025-12-04T23:34:06.008628+00:00", "meta": {"OBJECT_NAME": "FENGYUN 1C DEB", "OBJECT_ID": "1999-025CUR", "EPOCH": "2025-12-04T06:51:46.584576", "MEAN_MOTION": 14.08440247, "ECCENTRICITY": 0.0068891, "INCLINATION": 98.773, "RA_OF_ASC_NODE": 340.9294, "ARG_OF_PERICENTER": 324.3515, "MEAN_ANOMALY": 35.3064, "EPHEMERIS_TYPE": 0, "CLASSIFICATION_TYPE": "U", "NORAD_CAT_ID": 32195, "ELEMENT_SET_NO": 999, "REV_AT_EPOCH": 63863, "BSTAR": 0.0010039, "MEAN_MOTION_DOT": 1.715e-05, "MEAN_MOTION_DDOT": 0}, "tle": {"line1": "1 32195U 99025CUR 25338.28595584  .00001715  00000+0  10039-2 0  9990", "line2": "2 32195  98.7730 340.9294 0068891 324.3515  35.3064 14.08440247638633"}}, "geometry": {"type": "Point", "coordinates": [8.890177458320787, -71.38264293751256]}}, {"type": "Feature", "properties": {"norad_id": 32197, "name": "FENGYUN 1C DEB", "group": "fengyun-1c-debris", "lat": 80.74792692668306, "lon": 142.0222688640531, "alt_km": 883.934063117098, "timestamp": "2025-12-04T23:34:06.008638+00:00", "meta": {"OBJECT_NAME": "FENGYUN 1C DEB", "OBJECT_ID": "1999-025CUT", "EPOCH": "2025-12-04T12:15:54.172224", "MEAN_MOTION": 14.32633577, "ECCENTRICITY": 0.0161219, "INCLINATION": 98.9014, "RA_OF_ASC_NODE": 247.3657, "ARG_OF_PERICENTER": 254.1251, "MEAN_ANOMALY": 291.3699, "EPHEMERIS_TYPE": 0, "CLASSIFICATION_TYPE": "U", "NORAD_CAT_ID": 32197, "ELEMENT_SET_NO": 999, "REV_AT_EPOCH": 94305, "BSTAR": 0.0010347, "MEAN_MOTION_DOT": 3.196e-05, "MEAN_MOTION_DDOT": 0}, "tle": {"line1": "1 32197U 99025CUT 25338.51104366  .00003196  00000+0  10347-2 0  9999", "line2": "2 32197  98.9014 247.3657 0161219 254.1251 291.3699 14.32633577943050"}}, "geometry": {"type": "Point", "coordinates": [142.0222688640531, 80.74792692668306]}}, {"type": "Feature", "properties": {"norad_id": 32198, "name": "FENGYUN 1C DEB", "group": "fengyun-1c-debris", "lat": 43.44424071277042, "lon": 118.44930363081463, "alt_km": 858.1531599602977, "timestamp": "2025-12-04T23:34:06.008649+00:00", "meta": {"OBJECT_NAME": "FENGYUN 1C DEB", "OBJECT_ID": "1999-025CUU", "EPOCH": "2025-11-26T15:55:14.672064", "MEAN_MOTION": 14.08693486, "ECCENTRICITY": 0.00946342, "INCLINATION": 98.344, "RA_OF_ASC_NODE": 118.7379, "ARG_OF_PERICENTER": 338.8779, "MEAN_ANOMALY": 20.8495, "EPHEMERIS_TYPE": 0, "CLASSIFICATION_TYPE": "U", "NORAD_CAT_ID": 32198, "ELEMENT_SET_NO": 999, "REV_AT_EPOCH": 56719, "BSTAR": 0.0016262032, "MEAN_MOTION_DOT": 2.879e-05, "MEAN_MOTION_DDOT": 0}, "tle": {"line1": "1 32198U 99025CUU 25330.66336426  .00002879  00000+0  16262-2 0  9991", "line2": "2 32198  98.3440 118.7379 0094634 338.8779  20.8495 14.08693486567195"}}, "geometry": {"type": "Point", "coordinates": [118.44930363081463, 43.44424071277042]}}, {"type": "Feature", "properties": {"norad_id": 32200, "name": "FENGYUN 1C DEB", "group": "fengyun-1c-debris", "lat": 55.649236246061214, "lon": -138.85259256405737, "alt_km": 862.7127234215113, "timestamp": "2025-12-04T23:34:06.008659+00:00", "meta": {"OBJECT_NAME": "FENGYUN 1C DEB", "OBJECT_ID": "1999-025CUW", "EPOCH": "2025-12-04T14:30:19.457568", "MEAN_MOTION": 14.15649918, "ECCENTRICITY": 0.0039263, "INCLINATION": 98.7917, "RA_OF_ASC_NODE": 27.6877, "ARG_OF_PERICENTER": 313.708, "MEAN_ANOMALY": 46.0844, "EPHEMERIS_TYPE": 0, "CLASSIFICATION_TYPE": "U", "NORAD_CAT_ID": 32200, "ELEMENT_SET_NO": 999, "REV_AT_EPOCH": 94248, "BSTAR": 0.0018598, "MEAN_MOTION_DOT": 3.628e-05, "MEAN_MOTION_DDOT": 0}, "tle": {"line1": "1 32200U 99025CUW 25338.60439187  .00003628  00000+0  18598-2 0  9992", "line2": "2 32200  98.7917  27.6877 0039263 313.7080  46.0844 14.15649918942483"}}, "geometry": {"type": "Point", "coordinates": [-138.85259256405737, 55.649236246061214]}}]}